{"spkid": "50826700", "covariance": {"epoch": "2458474.5", "elements": [{"sigma": 3.98616366570998e-08, "name": "e", "units": null, "title": "eccentricity", "value": ".2942543042243292", "label": "e"}, {"label": "q", "title": "perihelion distance", "value": "1.004547422314811", "units": "au", "name": "q", "sigma": 3.88243723123641e-08}, {"label": "tp", "sigma": 1.05669473283126e-05, "name": "tp", "title": "time of perihelion passage", "value": "2458375.509668894088", "units": "TDB"}, {"label": "node", "units": "deg", "value": "326.7024724164969", "title": "longitude of the ascending node", "sigma": 5.24109707896311e-06, "name": "om"}, {"sigma": 1.19371525128834e-05, "name": "w", "title": "argument of perihelion", "value": "30.04784160846974", "units": "deg", "label": "peri"}, {"units": "deg", "value": "20.62756609695489", "title": "inclination", "sigma": 9.73072566231664e-06, "name": "i", "label": "i"}], "data": [["1.58895007698264E-15", "-1.120384728921085E-15", "9.463654270934593E-14", "-4.32325483981746E-14", "1.596150994658038E-13", "-3.590722873976202E-14"], ["-1.120384728921085E-15", "1.507331885449062E-15", "-9.726069670837295E-14", "7.301009459346097E-14", "-1.767494633153984E-13", "8.055873522858717E-14"], ["9.463654270934593E-14", "-9.726069670837295E-14", "1.11660375839332E-10", "8.624718979943851E-12", "1.147675817659844E-10", "-8.70537659685315E-12"], ["-4.32325483981746E-14", "7.301009459346097E-14", "8.624718979943851E-12", "2.74690985911156E-11", "-1.413925098289875E-11", "-2.77415114401472E-12"], ["1.596150994658038E-13", "-1.767494633153984E-13", "1.147675817659844E-10", "-1.413925098289875E-11", "1.424956101158381E-10", "-6.464762486176356E-12"], ["-3.590722873976202E-14", "8.055873522858717E-14", "-8.70537659685315E-12", "-2.77415114401472E-12", "-6.464762486176356E-12", "9.468702191526764E-11"]], "labels": ["e", "q", "tp", "node", "peri", "i"]}, "elements": [{"units": null, "title": "eccentricity", "value": ".294421778084645", "sigma": "3.9627E-8", "name": "e", "label": "e"}, {"units": "au", "title": "semi-major axis", "value": "1.423386777052586", "name": "a", "sigma": "5.4877E-8", "label": "a"}, {"value": "1.004310711250591", "title": "perihelion distance", "units": "au", "sigma": "3.8813E-8", "name": "q", "label": "q"}, {"value": "20.62944796036397", "title": "inclination; angle with respect to x-y ecliptic plane", "units": "deg", "name": "i", "sigma": "9.7319E-6", "label": "i"}, {"sigma": "5.2403E-6", "name": "om", "title": "longitude of the ascending node", "value": "326.6744332845354", "units": "deg", "label": "node"}, {"sigma": "1.1933E-5", "name": "w", "value": "30.05911020196786", "title": "argument of perihelion", "units": "deg", "label": "peri"}, {"label": "M", "name": "ma", "sigma": "9.6388E-5", "units": "deg", "title": "mean anomaly", "value": "199.6032100561184"}, {"name": "tp", "sigma": ".00018203", "units": "TDB", "title": "time of perihelion passage", "value": "2461476.860512263537", "label": "tp"}, {"units": "d", "value": "620.2729147489933", "title": "sidereal orbital period", "name": "per", "sigma": "3.5871E-5", "label": "period"}, {"label": "n", "name": "n", "sigma": "3.3565E-8", "units": "deg/d", "title": "mean motion", "value": ".5803896824121066"}, {"label": "Q", "title": "aphelion distance", "value": "1.84246284285458", "units": "au", "name": "ad", "sigma": "7.1035E-8"}], "epoch": "2461200.5"}